{"type": "FeatureCollection", "features": [ {"type": "Feature", "properties": {"norad_id": 41175, "name": "GSAT0208 (GALILEO 11)", "group": "galileo", "lat": 49.8172523995306, "lon": -127.44263270339476, "alt_km": 23218.10283955627, "timestamp": "2025-12-12T07:43:20.776359+00:00", "meta": {"OBJECT_NAME": "GSAT0208 (GALILEO 11)", "OBJECT_ID": "2015-079B", "EPOCH": "2025-12-08T14:51:40.201056", "MEAN_MOTION": 1.70474231, "ECCENTRICITY": 0.0001859, "INCLINATION": 55.7088, "RA_OF_ASC_NODE": 106.4912, "ARG_OF_PERICENTER": 3.1611, "MEAN_ANOMALY": 356.8026, "EPHEMERIS_TYPE": 0, "CLASSIFICATION_TYPE": "U", "NORAD_CAT_ID": 41175, "ELEMENT_SET_NO": 999, "REV_AT_EPOCH": 6194, "BSTAR": 0, "MEAN_MOTION_DOT": 1e-07, "MEAN_MOTION_DDOT": 0}, "tle": {"line1": "1 41175U 15079B   25342.61921529  .00000010  00000+0  00000+0 0  9990", "line2": "2 41175  55.7088 106.4912 0001859   3.1611 356.8026  1.70474231 61940"}}, "geometry": {"type": "Point", "coordinates": [-127.44263270339476, 49.8172523995306]}}, {"type": "Feature", "properties": {"norad_id": 41549, "name": "GSAT0211 (GALILEO 14)", "group": "galileo", "lat": 29.01673292271657, "lon": -110.44603413404604, "alt_km": 23207.098553847984, "timestamp": "2025-12-12T07:43:20.776369+00:00", "meta": {"OBJECT_NAME": "GSAT0211 (GALILEO 14)", "OBJECT_ID": "2016-030A", "EPOCH": "2025-12-11T02:09:03.353760", "MEAN_MOTION": 1.70473055, "ECCENTRICITY": 0.00041282, "INCLINATION": 55.1527, "RA_OF_ASC_NODE": 226.8689, "ARG_OF_PERICENTER": 18.4657, "MEAN_ANOMALY": 341.6286, "EPHEMERIS_TYPE": 0, "CLASSIFICATION_TYPE": "U", "NORAD_CAT_ID": 41549, "ELEMENT_SET_NO": 999, "REV_AT_EPOCH": 5946, "BSTAR": 0, "MEAN_MOTION_DOT": 9e-08, "MEAN_MOTION_DDOT": 0}, "tle": {"line1": "1 41549U 16030A   25345.08962215  .00000009  00000+0  00000+0 0  9992", "line2": "2 41549  55.1527 226.8689 0004128  18.4657 341.6286  1.70473055 59463"}}, "geometry": {"type": "Point", "coordinates": [-110.44603413404604, 29.01673292271657]}}, {"type": "Feature", "properties": {"norad_id": 41550, "name": "GSAT0210 (GALILEO 13)", "group": "galileo", "lat": -44.26298410029587, "lon": 89.55817298068233, "alt_km": 23223.820567949366, "timestamp": "2025-12-12T07:43:20.776380+00:00", "meta": {"OBJECT_NAME": "GSAT0210 (GALILEO 13)", "OBJECT_ID": "2016-030B", "EPOCH": "2025-12-11T08:19:41.751264", "MEAN_MOTION": 1.70473653, "ECCENTRICITY": 0.00011945, "INCLINATION": 55.152, "RA_OF_ASC_NODE": 226.8599, "ARG_OF_PERICENTER": 242.2312, "MEAN_ANOMALY": 117.8354, "EPHEMERIS_TYPE": 0, "CLASSIFICATION_TYPE": "U", "NORAD_CAT_ID": 41550, "ELEMENT_SET_NO": 999, "REV_AT_EPOCH": 5946, "BSTAR": 0, "MEAN_MOTION_DOT": 1e-07, "MEAN_MOTION_DDOT": 0}, "tle": {"line1": "1 41550U 16030B   25345.34701101  .00000010  00000+0  00000+0 0  9990", "line2": "2 41550  55.1520 226.8599 0001194 242.2312 117.8354  1.70473653 59466"}}, "geometry": {"type": "Point", "coordinates": [89.55817298068233, -44.26298410029587]}}, {"type": "Feature", "properties": {"norad_id": 41859, "name": "GSAT0207 (GALILEO 15)", "group": "galileo", "lat": 49.47929254977006, "lon": 160.1006160595675, "alt_km": 23217.81372733177, "timestamp": "2025-12-12T07:43:20.776391+00:00", "meta": {"OBJECT_NAME": "GSAT0207 (GALILEO 15)", "OBJECT_ID": "2016-069A", "EPOCH": "2025-12-09T20:46:23.344608", "MEAN_MOTION": 1.70474355, "ECCENTRICITY": 0.00021941, "INCLINATION": 55.3802, "RA_OF_ASC_NODE": 106.3298, "ARG_OF_PERICENTER": 323.9491, "MEAN_ANOMALY": 36.0038, "EPHEMERIS_TYPE": 0, "CLASSIFICATION_TYPE": "U", "NORAD_CAT_ID": 41859, "ELEMENT_SET_NO": 999, "REV_AT_EPOCH": 5617, "BSTAR": 0, "MEAN_MOTION_DOT": 1.1e-07, "MEAN_MOTION_DDOT": 0}, "tle": {"line1": "1 41859U 16069A   25343.86554797  .00000011  00000+0  00000+0 0  9997", "line2": "2 41859  55.3802 106.3298 0002194 323.9491  36.0038  1.70474355 56173"}}, "geometry": {"type": "Point", "coordinates": [160.1006160595675, 49.47929254977006]}}, {"type": "Feature", "properties": {"norad_id": 41860, "name": "GSAT0212 (GALILEO 16)", "group": "galileo", "lat": 18.495626368509715, "lon": -87.10292220365663, "alt_km": 23223.868231055538, "timestamp": "2025-12-12T07:43:20.776403+00:00", "meta": {"OBJECT_NAME": "GSAT0212 (GALILEO 16)", "OBJECT_ID": "2016-069B", "EPOCH": "2025-12-09T03:10:58.927872", "MEAN_MOTION": 1.70474546, "ECCENTRICITY": 0.00021877, "INCLINATION": 55.3778, "RA_OF_ASC_NODE": 106.3455, "ARG_OF_PERICENTER": 30.0277, "MEAN_ANOMALY": 329.9496, "EPHEMERIS_TYPE": 0, "CLASSIFICATION_TYPE": "U", "NORAD_CAT_ID": 41860, "ELEMENT_SET_NO": 999, "REV_AT_EPOCH": 5641, "BSTAR": 0, "MEAN_MOTION_DOT": 1e-07, "MEAN_MOTION_DDOT": 0}, "tle": {"line1": "1 41860U 16069B   25343.13262648  .00000010  00000+0  00000+0 0  9999", "line2": "2 41860  55.3778 106.3455 0002187  30.0277 329.9496  1.70474546 56413"}}, "geometry": {"type": "Point", "coordinates": [-87.10292220365663, 18.495626368509715]}}, {"type": "Feature", "properties": {"norad_id": 41861, "name": "GSAT0213 (GALILEO 17)", "group": "galileo", "lat": -49.89829374952008, "lon": 51.21617674843961, "alt_km": 23220.739240448027, "timestamp": "2025-12-12T07:43:20.776414+00:00", "meta": {"OBJECT_NAME": "GSAT0213 (GALILEO 17)", "OBJECT_ID": "2016-069C", "EPOCH": "2025-12-11T06:14:19.190112", "MEAN_MOTION": 1.70474845, "ECCENTRICITY": 0.00023572, "INCLINATION": 55.3813, "RA_OF_ASC_NODE": 106.2942, "ARG_OF_PERICENTER": 283.5833, "MEAN_ANOMALY": 76.361, "EPHEMERIS_TYPE": 0, "CLASSIFICATION_TYPE": "U", "NORAD_CAT_ID": 41861, "ELEMENT_SET_NO": 999, "REV_AT_EPOCH": 5631, "BSTAR": 0, "MEAN_MOTION_DOT": 9e-08, "MEAN_MOTION_DDOT": 0}, "tle": {"line1": "1 41861U 16069C   25345.25994433  .00000009  00000+0  00000+0 0  9997", "line2": "2 41861  55.3813 106.2942 0002357 283.5833  76.3610  1.70474845 56318"}}, "geometry": {"type": "Point", "coordinates": [51.21617674843961, -49.89829374952008]}}, {"type": "Feature", "properties": {"norad_id": 41862, "name": "GSAT0214 (GALILEO 18)", "group": "galileo", "lat": -18.021735847068552, "lon": -60.77729011661188, "alt_km": 23224.548091368364, "timestamp": "2025-12-12T07:43:20.776425+00:00", "meta": {"OBJECT_NAME": "GSAT0214 (GALILEO 18)", "OBJECT_ID": "2016-069D", "EPOCH": "2025-12-10T19:39:52.929504", "MEAN_MOTION": 1.70474684, "ECCENTRICITY": 0.00013288, "INCLINATION": 55.3792, "RA_OF_ASC_NODE": 106.2992, "ARG_OF_PERICENTER": 290.9764, "MEAN_ANOMALY": 68.9794, "EPHEMERIS_TYPE": 0, "CLASSIFICATION_TYPE": "U", "NORAD_CAT_ID": 41862, "ELEMENT_SET_NO": 999, "REV_AT_EPOCH": 5643, "BSTAR": 0, "MEAN_MOTION_DOT": 1e-07, "MEAN_MOTION_DDOT": 0}, "tle": {"line1": "1 41862U 16069D   25344.81936261  .00000010  00000+0  00000+0 0  9996", "line2": "2 41862  55.3792 106.2992 0001328 290.9764  68.9794  1.70474684 56436"}}, "geometry": {"type": "Point", "coordinates": [-60.77729011661188, -18.021735847068552]}}, {"type": "Feature", "properties": {"norad_id": 43055, "name": "GSAT0215 (GALILEO 19)", "group": "galileo", "lat": -54.190742019695925, "lon": 121.57885061587838, "alt_km": 23227.861728766165, "timestamp": "2025-12-12T07:43:20.776437+00:00", "meta": {"OBJECT_NAME": "GSAT0215 (GALILEO 19)", "OBJECT_ID": "2017-079A", "EPOCH": "2025-12-11T07:25:43.247712", "MEAN_MOTION": 1.7047387, "ECCENTRICITY": 0.00012643, "INCLINATION": 55.1305, "RA_OF_ASC_NODE": 226.6772, "ARG_OF_PERICENTER": 348.3771, "MEAN_ANOMALY": 11.6989, "EPHEMERIS_TYPE": 0, "CLASSIFICATION_TYPE": "U", "NORAD_CAT_ID": 43055, "ELEMENT_SET_NO": 999, "REV_AT_EPOCH": 4978, "BSTAR": 0, "MEAN_MOTION_DOT": 1e-07, "MEAN_MOTION_DDOT": 0}, "tle": {"line1": "1 43055U 17079A   25345.30952833  .00000010  00000+0  00000+0 0  9992", "line2": "2 43055  55.1305 226.6772 0001264 348.3771  11.6989  1.70473870 49785"}}, "geometry": {"type": "Point", "coordinates": [121.57885061587838, -54.190742019695925]}}, {"type": "Feature", "properties": {"norad_id": 43056, "name": "GSAT0216 (GALILEO 20)", "group": "galileo", "lat": 54.439949952459266, "lon": -56.31867229419685, "alt_km": 23219.803751517968, "timestamp": "2025-12-12T07:43:20.776448+00:00", "meta": {"OBJECT_NAME": "GSAT0216 (GALILEO 20)", "OBJECT_ID": "2017-079B", "EPOCH": "2025-12-10T10:15:48.535776", "MEAN_MOTION": 1.70473969, "ECCENTRICITY": 0.000248, "INCLINATION": 55.1311, "RA_OF_ASC_NODE": 226.7014, "ARG_OF_PERICENTER": 319.9818, "MEAN_ANOMALY": 40.0811, "EPHEMERIS_TYPE": 0, "CLASSIFICATION_TYPE": "U", "NORAD_CAT_ID": 43056, "ELEMENT_SET_NO": 999, "REV_AT_EPOCH": 4978, "BSTAR": 0, "MEAN_MOTION_DOT": 9e-08, "MEAN_MOTION_DDOT": 0}, "tle": {"line1": "1 43056U 17079B   25344.42764509  .00000009  00000+0  00000+0 0  9994", "line2": "2 43056  55.1311 226.7014 0002480 319.9818  40.0811  1.70473969 49789"}}, "geometry": {"type": "Point", "coordinates": [-56.31867229419685, 54.439949952459266]}}, {"type": "Feature", "properties": {"norad_id": 43057, "name": "GSAT0217 (GALILEO 21)", "group": "galileo", "lat": -40.94421137858194, "lon": -170.53239503954575, "alt_km": 23220.42686782305, "timestamp": "2025-12-12T07:43:20.776459+00:00", "meta": {"OBJECT_NAME": "GSAT0217 (GALILEO 21)", "OBJECT_ID": "2017-079C", "EPOCH": "2025-12-10T01:28:57.302112", "MEAN_MOTION": 1.704739, "ECCENTRICITY": 0.00027944, "INCLINATION": 55.1293, "RA_OF_ASC_NODE": 226.7095, "ARG_OF_PERICENTER": 343.7549, "MEAN_ANOMALY": 16.3188, "EPHEMERIS_TYPE": 0, "CLASSIFICATION_TYPE": "U", "NORAD_CAT_ID": 43057, "ELEMENT_SET_NO": 999, "REV_AT_EPOCH": 4976, "BSTAR": 0, "MEAN_MOTION_DOT": 9e-08, "MEAN_MOTION_DDOT": 0}, "tle": {"line1": "1 43057U 17079C   25344.06177433  .00000009  00000+0  00000+0 0  9999", "line2": "2 43057  55.1293 226.7095 0002794 343.7549  16.3188  1.70473900 49768"}}, "geometry": {"type": "Point", "coordinates": [-170.53239503954575, -40.94421137858194]}}]}